[{"OBJECT_NAME":"STARLINK-4010","OBJECT_ID":"2022-062AJ","EPOCH":"2026-03-09T06:37:53.312736","MEAN_MOTION":15.0884216,"ECCENTRICITY":0.00016817,"INCLINATION":53.2183,"RA_OF_ASC_NODE":25.9758,"ARG_OF_PERICENTER":86.1195,"MEAN_ANOMALY":273.999,"EPHEMERIS_TYPE":0,"CLASSIFICATION_TYPE":"U","NORAD_CAT_ID":52862,"ELEMENT_SET_NO":999,"REV_AT_EPOCH":20586,"BSTAR":3.340954e-6,"MEAN_MOTION_DOT":-2.35e-6,"MEAN_MOTION_DDOT":0},{"OBJECT_NAME":"ELECTRON KICK STAGE R\/B","OBJECT_ID":"2023-196B","EPOCH":"2026-03-09T10:54:03.246336","MEAN_MOTION":15.12760744,"ECCENTRICITY":0.00189263,"INCLINATION":42.0179,"RA_OF_ASC_NODE":242.1679,"ARG_OF_PERICENTER":295.0915,"MEAN_ANOMALY":64.7951,"EPHEMERIS_TYPE":0,"CLASSIFICATION_TYPE":"U","NORAD_CAT_ID":58579,"ELEMENT_SET_NO":999,"REV_AT_EPOCH":12282,"BSTAR":0.00048326039,"MEAN_MOTION_DOT":8.466e-5,"MEAN_MOTION_DDOT":0}]
